[{"OBJECT_NAME":"STARLINK-5541","OBJECT_ID":"2023-064AD","EPOCH":"2026-03-09T12:31:50.866464","MEAN_MOTION":14.98353783,"ECCENTRICITY":0.00033811,"INCLINATION":69.9994,"RA_OF_ASC_NODE":124.9029,"ARG_OF_PERICENTER":267.8014,"MEAN_ANOMALY":92.2758,"EPHEMERIS_TYPE":0,"CLASSIFICATION_TYPE":"U","NORAD_CAT_ID":56475,"ELEMENT_SET_NO":999,"REV_AT_EPOCH":15571,"BSTAR":0.00020202542,"MEAN_MOTION_DOT":2.32e-5,"MEAN_MOTION_DDOT":0},{"OBJECT_NAME":"LEMUR-2-LUCILLE-ROSE","OBJECT_ID":"2025-135BV","EPOCH":"2026-03-09T20:33:39.744864","MEAN_MOTION":14.98437227,"ECCENTRICITY":0.00099823,"INCLINATION":97.7607,"RA_OF_ASC_NODE":185.354,"ARG_OF_PERICENTER":240.475,"MEAN_ANOMALY":119.5478,"EPHEMERIS_TYPE":0,"CLASSIFICATION_TYPE":"U","NORAD_CAT_ID":65403,"ELEMENT_SET_NO":999,"REV_AT_EPOCH":3375,"BSTAR":0.0012144011,"MEAN_MOTION_DOT":0.00014478,"MEAN_MOTION_DDOT":0}]
